{"type": "FeatureCollection", "features": [{"type": "Feature", "properties": {"name": "Heron Reef pilot analysis extent", "reef_id": "heron_island", "boundary_kind": "approximate_analysis_extent", "source": "Allen Coral Atlas reef extent", "attribution": "Allen Coral Atlas (2020). Imagery, maps and monitoring of the world's tropical coral reefs. https://doi.org/10.5281/zenodo.3833242 Reef-extent maps (c) 2020 Allen Coral Atlas Partnership and Vulcan, Inc., licensed CC BY 4.0. Derived: unioned, largest contiguous body kept, clipped to (151.884, -23.478, 151.975, -23.417).", "license": "CC BY 4.0"}, "geometry": {"type": "Polygon", "coordinates": [[[151.894580156, -23.440255598], [151.894334761, -23.440320035], [151.893840688, -23.440084557], [151.893705941, -23.440140372], [151.892987288, -23.440140372], [151.892741893, -23.439986104], [151.892677457, -23.439740709], [151.892804498, -23.439471214], [151.892767288, -23.439022056], [151.893011388, -23.438507167], [151.893306277, -23.438227153], [151.893460545, -23.437788514], [151.893755435, -23.437598332], [151.893909703, -23.437249525], [151.894179198, -23.436980031], [151.894438173, -23.436915594], [151.894628355, -23.436710536], [151.894783919, -23.4366461], [151.895066994, -23.4366461], [151.895233076, -23.436556268], [151.895516152, -23.436556268], [151.895695815, -23.436466437], [151.895796165, -23.436261378], [151.896270718, -23.436071196], [151.896335154, -23.435812221], [151.896760212, -23.435657953], [151.897006078, -23.435657953], [151.897053807, -23.435542726], [151.897222951, -23.43547829], [151.897323301, -23.435363063], [151.898646675, -23.434669806], [151.899019581, -23.434669806], [151.899185664, -23.434579974], [151.89955857, -23.434579974], [151.899724653, -23.434490143], [151.899917897, -23.434490143], [151.900055457, -23.434412126], [151.900108079, -23.434285085], [151.901790778, -23.433501996], [151.90219502, -23.433520601], [151.902419599, -23.433412165], [151.902612842, -23.433412165], [151.902778925, -23.433322333], [151.903151832, -23.433322333], [151.903317914, -23.433232502], [151.904126398, -23.433232502], [151.90429248, -23.433322333], [151.904710303, -23.433378148], [151.90484505, -23.433322333], [151.905307788, -23.433322333], [151.905473871, -23.433232502], [151.905743365, -23.433232502], [151.906237439, -23.433378148], [151.906372186, -23.433322333], [151.906745093, -23.433322333], [151.906911175, -23.433232502], [151.907360333, -23.433232502], [151.90779591, -23.433501996], [151.907989154, -23.433412165], [151.908272229, -23.433412165], [151.908438311, -23.433322333], [151.908707806, -23.433322333], [151.90896372, -23.433501996], [151.909233214, -23.433591828], [151.909426458, -23.433591828], [151.909864024, -23.433776293], [151.910324773, -23.433771491], [151.910518017, -23.433861322], [151.910953594, -23.433681659], [151.912853637, -23.433681659], [151.913199382, -23.433501996], [151.913535079, -23.433501996], [151.913672639, -23.433296938], [151.914021446, -23.433232502], [151.91430146, -23.432937612], [151.914726518, -23.432693512], [151.915728246, -23.432693512], [151.915894328, -23.432603681], [151.916253654, -23.432603681], [151.916689231, -23.432783344], [151.917151969, -23.432783344], [151.917345213, -23.432873175], [151.91778079, -23.432693512], [151.918229948, -23.432693512], [151.91839603, -23.432783344], [151.918679105, -23.432693512], [151.919860496, -23.432693512], [151.920385904, -23.432513849], [151.920938474, -23.432513849], [151.921104557, -23.432424018], [151.922375779, -23.432424018], [151.922541861, -23.432334186], [151.92308085, -23.432334186], [151.923274094, -23.432424018], [151.923440176, -23.432334186], [151.924441904, -23.432334186], [151.924877481, -23.432154523], [151.925281723, -23.432173128], [151.925596133, -23.43197486], [151.926148703, -23.43197486], [151.926314785, -23.431885029], [151.926508029, -23.431885029], [151.926674111, -23.431795197], [151.927047018, -23.431795197], [151.927213101, -23.431705366], [151.929818215, -23.431705366], [151.929973778, -23.431769802], [151.930196146, -23.432052563], [151.930406699, -23.43197486], [151.930471135, -23.431769802], [151.930626699, -23.431705366], [151.931255519, -23.431705366], [151.931860241, -23.431949465], [151.932515372, -23.432641806], [151.933038569, -23.432963007], [151.933308064, -23.433052838], [151.933591139, -23.433052838], [151.933757222, -23.43314267], [151.93421996, -23.43314267], [151.934386042, -23.433232502], [151.934669117, -23.433232502], [151.935094176, -23.43338677], [151.935194526, -23.433501996], [151.935453502, -23.433566433], [151.935553852, -23.433681659], [151.93601659, -23.433681659], [151.936362336, -23.433861322], [151.936645411, -23.433861322], [151.936811494, -23.433951154], [151.938455622, -23.433951154], [151.938621705, -23.433861322], [151.939174274, -23.433861322], [151.939340357, -23.433771491], [151.940238672, -23.433771491], [151.94037342, -23.433827305], [151.940508167, -23.433771491], [151.940957324, -23.433771491], [151.941092072, -23.433827305], [151.941226819, -23.433771491], [151.941689557, -23.433771491], [151.94185564, -23.433681659], [151.942318378, -23.433681659], [151.942498041, -23.433591828], [151.942957718, -23.433117275], [151.943576019, -23.432873175], [151.94367637, -23.432757949], [151.944474335, -23.432603681], [151.944923492, -23.432424018], [151.945267026, -23.432192649], [151.945652663, -23.431769802], [151.945895847, -23.43165366], [151.946101821, -23.431410476], [151.94654046, -23.431256208], [151.946730642, -23.43105115], [151.946973825, -23.430935007], [151.947089968, -23.430781655], [151.947333152, -23.430665513], [151.948193341, -23.429782989], [151.948193341, -23.429589746], [151.948347609, -23.429164688], [151.948796767, -23.42871553], [151.949193303, -23.428573077], [151.949335756, -23.428356204], [151.94957894, -23.428240061], [151.949964577, -23.427817215], [151.950313384, -23.427662947], [151.950773061, -23.427278226], [151.951032036, -23.427213789], [151.95131205, -23.427008731], [151.95184052, -23.426854463], [151.952186265, -23.4266748], [151.953098161, -23.426584968], [151.953378175, -23.426290079], [151.953533738, -23.426225642], [151.953779133, -23.426290079], [151.953879484, -23.426405305], [151.954048628, -23.426469742], [151.954370745, -23.426866278], [151.955126606, -23.427188394], [151.955370706, -23.427627033], [151.955575764, -23.427727383], [151.95587157, -23.428060398], [151.956294416, -23.428266372], [151.95657443, -23.428561262], [151.9571029, -23.428805362], [151.957372395, -23.429074856], [151.95760468, -23.429561223], [151.957731721, -23.429613845], [151.957911384, -23.429973171], [151.95797582, -23.430128735], [151.95797582, -23.430591473], [151.958180878, -23.430871487], [151.958245315, -23.431130462], [151.958360541, -23.431230813], [151.958550723, -23.431615534], [151.960271103, -23.431615534], [151.960437186, -23.431705366], [151.961349081, -23.431705366], [151.961515164, -23.431795197], [151.961888071, -23.431795197], [151.962323648, -23.43197486], [151.962786386, -23.432064692], [151.963401626, -23.432334186], [151.963684701, -23.432334186], [151.964120278, -23.432513849], [151.964403353, -23.432513849], [151.964569436, -23.432603681], [151.96477626, -23.432603681], [151.964942343, -23.432513849], [151.965481332, -23.432513849], [151.966065237, -23.432712117], [151.96655931, -23.432693512], [151.96717455, -23.433052838], [151.967433526, -23.433117275], [151.967882683, -23.433566433], [151.967998826, -23.433809616], [151.96824201, -23.43401559], [151.968575941, -23.434710143], [151.968575941, -23.434979638], [151.968486109, -23.43514572], [151.968486109, -23.435532207], [151.968564126, -23.435669767], [151.968780999, -23.435812221], [151.968897141, -23.436055404], [151.969140325, -23.436171547], [151.969547379, -23.4366461], [151.96974833, -23.436701914], [151.969896657, -23.4366461], [151.970266502, -23.436261378], [151.970446165, -23.436171547], [151.971589876, -23.435837616], [151.972398359, -23.435837616], [151.972564442, -23.435927447], [151.973296675, -23.435927447], [151.973462757, -23.436017279], [151.974284821, -23.436017279], [151.974361072, -23.436040125], [151.974799711, -23.436171547], [151.975, -23.436285997766134], [151.975, -23.473737363], [151.974361072, -23.473737363], [151.973476338, -23.474006858], [151.9730136, -23.474006858], [151.972847517, -23.474096689], [151.972488191, -23.474096689], [151.972353444, -23.474040875], [151.971935621, -23.474096689], [151.971769539, -23.474186521], [151.971486464, -23.474186521], [151.971140718, -23.474366184], [151.969779665, -23.474366184], [151.969613582, -23.474456015], [151.969344087, -23.474456015], [151.969029677, -23.474310369], [151.96889493, -23.474366184], [151.967983034, -23.474366184], [151.967816951, -23.474456015], [151.967457625, -23.474456015], [151.966932217, -23.474276352], [151.966469479, -23.474276352], [151.966303396, -23.474186521], [151.963505038, -23.474186521], [151.963338956, -23.474096689], [151.962786386, -23.474096689], [151.962620303, -23.474006858], [151.96125925, -23.474006858], [151.961093167, -23.473917026], [151.96070668, -23.473917026], [151.960450766, -23.474006858], [151.960015189, -23.473827195], [151.959462619, -23.473827195], [151.959296537, -23.473737363], [151.958384641, -23.473647532], [151.957859232, -23.473467869], [151.957396494, -23.473467869], [151.956781254, -23.473198374], [151.956498179, -23.473288206], [151.956138853, -23.473288206], [151.95597277, -23.473198374], [151.955599864, -23.473198374], [151.955074455, -23.473018711], [151.95479138, -23.473018711], [151.954625297, -23.472928879], [151.954162559, -23.472928879], [151.953457487, -23.472659385], [151.953084581, -23.472659385], [151.952500676, -23.472423907], [151.952096434, -23.472479722], [151.951930351, -23.47238989], [151.95128795, -23.47238989], [151.950762542, -23.472210227], [151.950479466, -23.472210227], [151.950133721, -23.472030564], [151.948682836, -23.472030564], [151.948516753, -23.471940733], [151.947964184, -23.471940733], [151.947798101, -23.471850901], [151.947335363, -23.471850901], [151.94716928, -23.47176107], [151.946976037, -23.471850901], [151.946526879, -23.471850901], [151.946360797, -23.47176107], [151.945538732, -23.47176107], [151.94537265, -23.471671238], [151.944999743, -23.471671238], [151.944384503, -23.471311912], [151.943998016, -23.471311912], [151.943831933, -23.471401743], [151.943113281, -23.471401743], [151.942767536, -23.47122208], [151.942574292, -23.47122208], [151.942138715, -23.471042417], [151.941316651, -23.471042417], [151.940611579, -23.470683091], [151.940328504, -23.470683091], [151.94017294, -23.470618655], [151.93954412, -23.470259329], [151.939353938, -23.470054271], [151.938915299, -23.469900003], [151.938645804, -23.469540676], [151.93843983, -23.46911783], [151.938106815, -23.469001687], [151.937900841, -23.468758504], [151.937657657, -23.468642361], [151.937377644, -23.468347472], [151.936669511, -23.46801354], [151.936553368, -23.467860188], [151.936310185, -23.467744046], [151.935850508, -23.467269493], [151.93487288, -23.466755899], [151.934783049, -23.466666067], [151.934718612, -23.466407092], [151.934487243, -23.466153389], [151.933974565, -23.465947415], [151.933858422, -23.465794063], [151.933615239, -23.465677921], [151.933425057, -23.465472863], [151.933255913, -23.465408426], [151.933155562, -23.4652932], [151.932896586, -23.465228763], [151.932754132, -23.46501189], [151.932177934, -23.464689774], [151.931612634, -23.464087264], [151.93136945, -23.463971122], [151.931073645, -23.463638107], [151.930560967, -23.463342301], [151.930333575, -23.463047411], [151.930021978, -23.462982975], [151.929842314, -23.462803312], [151.929456677, -23.462021139], [151.92893348, -23.461699938], [151.928584673, -23.461635502], [151.92840501, -23.461455839], [151.928288868, -23.460943161], [151.927955852, -23.460737187], [151.927813399, -23.460430483], [151.927327032, -23.460198197], [151.927057537, -23.459928703], [151.926941395, -23.459685519], [151.926249053, -23.459030388], [151.926184617, -23.458767619], [151.925955459, -23.458915161], [151.925620233, -23.458850725], [151.925465965, -23.458605329], [151.925530401, -23.458359934], [151.925617105, -23.458277653], [151.925236807, -23.45828634], [151.925081243, -23.458221904], [151.925016807, -23.45806634], [151.925016807, -23.457796846], [151.925081243, -23.457641282], [151.92541647, -23.457576846], [151.925751697, -23.457731114], [151.925816133, -23.457886677], [151.925754824, -23.458214353], [151.926111023, -23.458270103], [151.926243558, -23.458463031], [151.926402405, -23.458333623], [151.926491321, -23.458156172], [151.926465926, -23.458094863], [151.926159222, -23.457952409], [151.925889727, -23.457682915], [151.925825291, -23.457527351], [151.925889727, -23.457281956], [151.926148703, -23.45711853], [151.925979559, -23.457054094], [151.925620233, -23.456694768], [151.925555796, -23.456525624], [151.925350738, -23.456425273], [151.925054932, -23.456092258], [151.924452423, -23.455886284], [151.924298155, -23.455447645], [151.924156617, -23.455283774], [151.923823602, -23.455167632], [151.923723252, -23.455052405], [151.923554108, -23.454987969], [151.923348133, -23.454744785], [151.92310495, -23.454628643], [151.922988807, -23.454475291], [151.92193714, -23.453820159], [151.921836789, -23.453615101], [151.921577814, -23.453550664], [151.92137184, -23.453307481], [151.921128656, -23.453191338], [151.921012514, -23.452948155], [151.92066898, -23.452716786], [151.920410004, -23.452652349], [151.920293861, -23.452498997], [151.920050678, -23.452382854], [151.919934535, -23.452229502], [151.919591001, -23.451998133], [151.919653672, -23.45254628], [151.920002479, -23.452610717], [151.920298284, -23.453123395], [151.920721131, -23.453329369], [151.921001145, -23.453624258], [151.921349952, -23.453688695], [151.921619446, -23.45395819], [151.921683883, -23.454179956], [151.92189946, -23.454342911], [151.923056751, -23.454766673], [151.923109373, -23.454893714], [151.923326245, -23.455036168], [151.923390682, -23.455191731], [151.923326245, -23.455437126], [151.922991019, -23.455501563], [151.922106284, -23.455052405], [151.921757477, -23.454987969], [151.921657126, -23.454872742], [151.921308319, -23.454718474], [151.921243883, -23.454496708], [151.921102345, -23.454385459], [151.919960846, -23.453730327], [151.919575209, -23.453127818], [151.919242194, -23.453011675], [151.919152363, -23.452921844], [151.919087926, -23.452662868], [151.918423191, -23.452177796], [151.918090622, -23.452067464], [151.918026185, -23.452293023], [151.917870622, -23.452357459], [151.917601127, -23.452357459], [151.917445564, -23.452293023], [151.917381127, -23.452071257], [151.91716555, -23.451908302], [151.916985887, -23.45181847], [151.916523149, -23.45181847], [151.916367585, -23.451754034], [151.915818077, -23.45118965], [151.914840449, -23.450676055], [151.914724307, -23.450522703], [151.91430146, -23.450316729], [151.914111278, -23.450111671], [151.913828203, -23.450111671], [151.913672639, -23.450047235], [151.913556497, -23.449893883], [151.913313313, -23.44977774], [151.91299609, -23.449393019], [151.912145503, -23.449059088], [151.911876009, -23.448699762], [151.911811572, -23.448440786], [151.911696346, -23.448340436], [151.911452246, -23.447901797], [151.911284397, -23.447674405], [151.911157357, -23.447621783], [151.911057006, -23.447326894], [151.91079803, -23.447262457], [151.910158691, -23.446787905], [151.909720052, -23.446633637], [151.909440039, -23.446338747], [151.908911568, -23.446184479], [151.908811218, -23.446069252], [151.908528143, -23.446069252], [151.908272229, -23.445889589], [151.907899322, -23.445889589], [151.907743759, -23.445825153], [151.906575949, -23.445196332], [151.906475598, -23.445081106], [151.905857296, -23.444837006], [151.905613197, -23.44450178], [151.905613197, -23.444039041], [151.905318307, -23.443759028], [151.905202165, -23.443515844], [151.904842839, -23.443156518], [151.904240329, -23.442770881], [151.903944523, -23.442437866], [151.903600989, -23.442206497], [151.903162351, -23.442052229], [151.902554346, -23.441701525], [151.902419599, -23.441757339], [151.901790778, -23.441757339], [151.901175538, -23.441577676], [151.900083979, -23.441577676], [151.899928416, -23.44151324], [151.899863979, -23.44128768], [151.899365327, -23.441487845], [151.898916169, -23.441487845], [151.898580943, -23.441333576], [151.898480592, -23.44121835], [151.897772459, -23.441064082], [151.897592796, -23.44097425], [151.897222951, -23.440589529], [151.896850044, -23.440589529], [151.896694481, -23.440525093], [151.896651776, -23.440421995], [151.896400886, -23.440589529], [151.895902234, -23.440569028], [151.895902234, -23.440908518], [151.895837798, -23.441064082], [151.895502571, -23.44121835], [151.895167345, -23.441153913], [151.895102908, -23.44099835], [151.895102908, -23.440639024], [151.895160619, -23.440499698], [151.89489785, -23.44034543], [151.894783919, -23.440107585], [151.894580156, -23.440255598]], [[151.895796165, -23.43980644], [151.895731729, -23.439650877], [151.895796165, -23.439405482], [151.895951729, -23.439341045], [151.896266139, -23.43939686], [151.896760212, -23.439251214], [151.897133119, -23.439251214], [151.897568696, -23.439071551], [151.898121266, -23.439071551], [151.898287348, -23.438981719], [151.898570424, -23.438981719], [151.899289076, -23.438712225], [151.899504653, -23.438496648], [151.899504653, -23.438303404], [151.899838584, -23.43751902], [151.899953811, -23.437418669], [151.900043642, -23.437032182], [151.899800904, -23.436996268], [151.899634821, -23.4370861], [151.899351746, -23.4370861], [151.898263249, -23.437830147], [151.897568696, -23.438074246], [151.897375453, -23.438074246], [151.897016126, -23.438253909], [151.896672592, -23.438485279], [151.896376787, -23.438818294], [151.896133603, -23.438934436], [151.895747966, -23.439357283], [151.895488991, -23.439421719], [151.895478472, -23.439585145], [151.895542908, -23.439740709], [151.895542908, -23.440189866], [151.895485197, -23.440329192], [151.895731729, -23.440349694], [151.895796165, -23.440124134], [151.895969102, -23.439870877], [151.895796165, -23.43980644]], [[151.918876142, -23.451647965], [151.918837796, -23.45163012], [151.918845188, -23.451647965], [151.918876142, -23.451647965]], [[151.918676894, -23.45151085], [151.918589274, -23.451459144], [151.918591485, -23.451506427], [151.918700077, -23.45156682], [151.918676894, -23.45151085]], [[151.917349006, -23.45074965], [151.91731066, -23.450731805], [151.917318052, -23.45074965], [151.917349006, -23.45074965]], [[151.917134596, -23.45065066], [151.917172942, -23.450668505], [151.91716555, -23.45065066], [151.917134596, -23.45065066]], [[151.916813616, -23.450488842], [151.916716392, -23.450381166], [151.916412345, -23.450282647], [151.916435529, -23.450338617], [151.916689231, -23.450480155], [151.916813616, -23.450488842]], [[151.915876954, -23.45002184], [151.91596006, -23.450095434], [151.916150242, -23.45021066], [151.916274626, -23.450219347], [151.915876954, -23.45002184]], [[151.95667563, -23.429591957], [151.956606615, -23.42955238], [151.956538516, -23.429782989], [151.95706569, -23.430729033], [151.957176494, -23.430717219], [151.956996831, -23.430025323], [151.956791773, -23.429835141], [151.95667563, -23.429591957]], [[151.915341758, -23.443563127], [151.915714665, -23.443563127], [151.915880747, -23.443652959], [151.917421464, -23.443690168], [151.917598916, -23.443601253], [151.91780489, -23.443358069], [151.918692686, -23.443024138], [151.918908263, -23.442808561], [151.918830247, -23.442554009], [151.918153697, -23.442116665], [151.917960453, -23.442116665], [151.917255382, -23.441847171], [151.916972306, -23.441847171], [151.916806224, -23.441757339], [151.916433317, -23.441757339], [151.916267235, -23.441667508], [151.91598416, -23.441667508], [151.915818077, -23.441577676], [151.914906181, -23.441398013], [151.914740099, -23.441308181], [151.914457024, -23.441308181], [151.914031965, -23.441153913], [151.913931615, -23.441038687], [151.913513793, -23.440982873], [151.913289214, -23.441038687], [151.913123131, -23.440948855], [151.912660393, -23.440911646], [151.912017992, -23.441038687], [151.911748497, -23.441128518], [151.911622752, -23.441254264], [151.911622752, -23.441447508], [151.91153292, -23.44161359], [151.91153292, -23.44216616], [151.911406527, -23.442347387], [151.912107823, -23.442664812], [151.912287486, -23.442754644], [151.912929888, -23.442754644], [151.91309597, -23.442844475], [151.913289214, -23.442844475], [151.913994285, -23.443203801], [151.914906181, -23.443383464], [151.915341758, -23.443563127]]]}}]}